IRIDIUM 119             
1 42959U 17061E   23249.55291024  .00000092  00000+0  25617-4 0  9997
2 42959  86.3914  89.2948 0002366  87.0445 273.1022 14.34212569309384
IRIDIUM 107             
1 42960U 17061F   23249.85101097  .00000085  00000+0  23285-4 0  9993
2 42960  86.3914  89.1850 0002308  83.9733 276.1726 14.34214403309437
IRIDIUM 132             
1 42961U 17061G   23249.78758422  .00000076  00000+0  20006-4 0  9994
2 42961  86.3915  89.1979 0002325  86.1198 274.0264 14.34214981309424
IRIDIUM 136             
1 42962U 17061H   23249.81929727  .00000050  00000+0  10870-4 0  9997
2 42962  86.3916  89.1867 0002205  93.3293 266.8155 14.34213452309447
IRIDIUM 139             
1 42963U 17061J   23249.68608981  .00000118  00000+0  35208-4 0  9996
2 42963  86.3916  89.2884 0002321  84.5512 275.5948 14.34215328309433
IRIDIUM 125             
1 42964U 17061K   23249.67341775  .00000085  00000+0  23390-4 0  9993
2 42964  86.3918  89.3362 0002367  85.7084 274.4382 14.34214659309442
IRIDIUM 135             
1 43070U 17083A   23249.78707418 -.00001028  00000+0 -37420-3 0  9996
2 43070  86.3993  25.9512 0001704  85.3007 274.8384 14.34211878298759
IRIDIUM 138             
1 43071U 17083B   23249.67290699  .00000379  00000+0  12828-3 0  9994
2 43071  86.3986  25.7512 0002316  93.3181 266.8280 14.34219873298728
